CCSDS_OMM_VERS = 2.0
CREATION_DATE  = 
ORIGINATOR     = 

OBJECT_NAME    = ATLAS CENTAUR 2
OBJECT_ID      = 1963-047A
CENTER_NAME    = EARTH
REF_FRAME      = TEME
TIME_SYSTEM    = UTC
MEAN_ELEMENT_THEORY = SGP/SGP4

EPOCH          = 2026-02-11T04:12:44.637696
MEAN_MOTION    = 14.11993366
ECCENTRICITY   = .054813
INCLINATION    = 30.3574
RA_OF_ASC_NODE = 343.8083
ARG_OF_PERICENTER = 206.6568
MEAN_ANOMALY   = 150.4836

EPHEMERIS_TYPE = 0
CLASSIFICATION_TYPE = U
NORAD_CAT_ID   = 694
ELEMENT_SET_NO = 999
REV_AT_EPOCH   = 12787
BSTAR          = .15537554E-3
MEAN_MOTION_DOT = .139E-4
MEAN_MOTION_DDOT = 0

CCSDS_OMM_VERS = 2.0
CREATION_DATE  = 
ORIGINATOR     = 

OBJECT_NAME    = THOR AGENA D R/B
OBJECT_ID      = 1964-002A
CENTER_NAME    = EARTH
REF_FRAME      = TEME
TIME_SYSTEM    = UTC
MEAN_ELEMENT_THEORY = SGP/SGP4

EPOCH          = 2026-02-11T21:57:55.411488
MEAN_MOTION    = 14.34004204
ECCENTRICITY   = .00325084
INCLINATION    = 99.1230
RA_OF_ASC_NODE = 54.8488
ARG_OF_PERICENTER = 335.2078
MEAN_ANOMALY   = 24.7541

EPHEMERIS_TYPE = 0
CLASSIFICATION_TYPE = U
NORAD_CAT_ID   = 733
ELEMENT_SET_NO = 999
REV_AT_EPOCH   = 23460
BSTAR          = .12016608E-3
MEAN_MOTION_DOT = .288E-5
MEAN_MOTION_DDOT = 0

CCSDS_OMM_VERS = 2.0
CREATION_DATE  = 
ORIGINATOR     = 

OBJECT_NAME    = SL-3 R/B
OBJECT_ID      = 1964-053B
CENTER_NAME    = EARTH
REF_FRAME      = TEME
TIME_SYSTEM    = UTC
MEAN_ELEMENT_THEORY = SGP/SGP4

EPOCH          = 2026-02-11T09:54:37.894176
MEAN_MOTION    = 14.61340198
ECCENTRICITY   = .00784799
INCLINATION    = 65.0765
RA_OF_ASC_NODE = 48.2717
ARG_OF_PERICENTER = 300.5596
MEAN_ANOMALY   = 58.7776

EPHEMERIS_TYPE = 0
CLASSIFICATION_TYPE = U
NORAD_CAT_ID   = 877
ELEMENT_SET_NO = 999
REV_AT_EPOCH   = 26295
BSTAR          = .1059559E-3
MEAN_MOTION_DOT = .422E-5
MEAN_MOTION_DDOT = 0

CCSDS_OMM_VERS = 2.0
CREATION_DATE  = 
ORIGINATOR     = 

OBJECT_NAME    = SL-8 R/B
OBJECT_ID      = 1967-045B
CENTER_NAME    = EARTH
REF_FRAME      = TEME
TIME_SYSTEM    = UTC
MEAN_ELEMENT_THEORY = SGP/SGP4

EPOCH          = 2026-02-10T10:44:27.479328
MEAN_MOTION    = 14.45595013
ECCENTRICITY   = .00631355
INCLINATION    = 74.0103
RA_OF_ASC_NODE = 38.9626
ARG_OF_PERICENTER = 52.0645
MEAN_ANOMALY   = 308.6195

EPHEMERIS_TYPE = 0
CLASSIFICATION_TYPE = U
NORAD_CAT_ID   = 2802
ELEMENT_SET_NO = 999
REV_AT_EPOCH   = 8508
BSTAR          = .10793991E-3
MEAN_MOTION_DOT = .363E-5
MEAN_MOTION_DDOT = 0

CCSDS_OMM_VERS = 2.0
CREATION_DATE  = 
ORIGINATOR     = 

OBJECT_NAME    = SL-8 R/B
OBJECT_ID      = 1968-040B
CENTER_NAME    = EARTH
REF_FRAME      = TEME
TIME_SYSTEM    = UTC
MEAN_ELEMENT_THEORY = SGP/SGP4

EPOCH          = 2026-02-11T22:52:02.757216
MEAN_MOTION    = 15.03060383
ECCENTRICITY   = .00251748
INCLINATION    = 74.0320
RA_OF_ASC_NODE = 6.2704
ARG_OF_PERICENTER = 197.6407
MEAN_ANOMALY   = 162.3910

EPHEMERIS_TYPE = 0
CLASSIFICATION_TYPE = U
NORAD_CAT_ID   = 3230
ELEMENT_SET_NO = 999
REV_AT_EPOCH   = 8614
BSTAR          = .29438447E-3
MEAN_MOTION_DOT = .3954E-4
MEAN_MOTION_DDOT = 0

CCSDS_OMM_VERS = 2.0
CREATION_DATE  = 
ORIGINATOR     = 

OBJECT_NAME    = OAO 2
OBJECT_ID      = 1968-110A
CENTER_NAME    = EARTH
REF_FRAME      = TEME
TIME_SYSTEM    = UTC
MEAN_ELEMENT_THEORY = SGP/SGP4

EPOCH          = 2026-02-11T02:02:00.248640
MEAN_MOTION    = 14.47291406
ECCENTRICITY   = .00056815
INCLINATION    = 34.9940
RA_OF_ASC_NODE = 53.7608
ARG_OF_PERICENTER = 338.7422
MEAN_ANOMALY   = 21.3032

EPHEMERIS_TYPE = 0
CLASSIFICATION_TYPE = U
NORAD_CAT_ID   = 3597
ELEMENT_SET_NO = 999
REV_AT_EPOCH   = 1524
BSTAR          = .83490181E-4
MEAN_MOTION_DOT = .291E-5
MEAN_MOTION_DDOT = 0

CCSDS_OMM_VERS = 2.0
CREATION_DATE  = 
ORIGINATOR     = 

OBJECT_NAME    = ISIS 1
OBJECT_ID      = 1969-009A
CENTER_NAME    = EARTH
REF_FRAME      = TEME
TIME_SYSTEM    = UTC
MEAN_ELEMENT_THEORY = SGP/SGP4

EPOCH          = 2026-02-11T16:44:03.028128
MEAN_MOTION    = 11.30404232
ECCENTRICITY   = .17078512
INCLINATION    = 88.4555
RA_OF_ASC_NODE = 158.1406
ARG_OF_PERICENTER = 141.6055
MEAN_ANOMALY   = 231.9927

EPHEMERIS_TYPE = 0
CLASSIFICATION_TYPE = U
NORAD_CAT_ID   = 3669
ELEMENT_SET_NO = 999
REV_AT_EPOCH   = 34559
BSTAR          = .20791713E-3
MEAN_MOTION_DOT = .311E-5
MEAN_MOTION_DDOT = 0

CCSDS_OMM_VERS = 2.0
CREATION_DATE  = 
ORIGINATOR     = 

OBJECT_NAME    = SERT 2
OBJECT_ID      = 1970-009A
CENTER_NAME    = EARTH
REF_FRAME      = TEME
TIME_SYSTEM    = UTC
MEAN_ELEMENT_THEORY = SGP/SGP4

EPOCH          = 2026-02-11T18:41:40.607808
MEAN_MOTION    = 13.58727361
ECCENTRICITY   = .00040948
INCLINATION    = 99.2723
RA_OF_ASC_NODE = 347.2952
ARG_OF_PERICENTER = 225.0298
MEAN_ANOMALY   = 198.7291

EPHEMERIS_TYPE = 0
CLASSIFICATION_TYPE = U
NORAD_CAT_ID   = 4327
ELEMENT_SET_NO = 999
REV_AT_EPOCH   = 77637
BSTAR          = .89564514E-4
MEAN_MOTION_DOT = .24E-6
MEAN_MOTION_DDOT = 0

CCSDS_OMM_VERS = 2.0
CREATION_DATE  = 
ORIGINATOR     = 

OBJECT_NAME    = SL-3 R/B
OBJECT_ID      = 1971-028B
CENTER_NAME    = EARTH
REF_FRAME      = TEME
TIME_SYSTEM    = UTC
MEAN_ELEMENT_THEORY = SGP/SGP4

EPOCH          = 2026-02-11T17:48:45.840672
MEAN_MOTION    = 15.59040819
ECCENTRICITY   = .00171897
INCLINATION    = 81.2344
RA_OF_ASC_NODE = 84.0306
ARG_OF_PERICENTER = 26.1238
MEAN_ANOMALY   = 334.0877

EPHEMERIS_TYPE = 0
CLASSIFICATION_TYPE = U
NORAD_CAT_ID   = 5118
ELEMENT_SET_NO = 999
REV_AT_EPOCH   = 98462
BSTAR          = .46292868E-3
MEAN_MOTION_DOT = .36437E-3
MEAN_MOTION_DDOT = 0

CCSDS_OMM_VERS = 2.0
CREATION_DATE  = 
ORIGINATOR     = 

OBJECT_NAME    = ASTEX 1
OBJECT_ID      = 1971-089A
CENTER_NAME    = EARTH
REF_FRAME      = TEME
TIME_SYSTEM    = UTC
MEAN_ELEMENT_THEORY = SGP/SGP4

EPOCH          = 2026-02-11T17:59:57.734592
MEAN_MOTION    = 14.50739434
ECCENTRICITY   = .00161786
INCLINATION    = 92.7150
RA_OF_ASC_NODE = 143.3677
ARG_OF_PERICENTER = 164.3722
MEAN_ANOMALY   = 195.7987

EPHEMERIS_TYPE = 0
CLASSIFICATION_TYPE = U
NORAD_CAT_ID   = 5560
ELEMENT_SET_NO = 999
REV_AT_EPOCH   = 85854
BSTAR          = .15730151E-3
MEAN_MOTION_DOT = .618E-5
MEAN_MOTION_DDOT = 0

CCSDS_OMM_VERS = 2.0
CREATION_DATE  = 
ORIGINATOR     = 

OBJECT_NAME    = SL-8 R/B
OBJECT_ID      = 1971-119B
CENTER_NAME    = EARTH
REF_FRAME      = TEME
TIME_SYSTEM    = UTC
MEAN_ELEMENT_THEORY = SGP/SGP4

EPOCH          = 2026-02-11T21:44:25.530720
MEAN_MOTION    = 14.37050670
ECCENTRICITY   = .05534036
INCLINATION    = 73.8849
RA_OF_ASC_NODE = 223.8845
ARG_OF_PERICENTER = 195.8135
MEAN_ANOMALY   = 162.5126

EPHEMERIS_TYPE = 0
CLASSIFICATION_TYPE = U
NORAD_CAT_ID   = 5730
ELEMENT_SET_NO = 999
REV_AT_EPOCH   = 65178
BSTAR          = .69625318E-3
MEAN_MOTION_DOT = .13428E-3
MEAN_MOTION_DDOT = 0

CCSDS_OMM_VERS = 2.0
CREATION_DATE  = 
ORIGINATOR     = 

OBJECT_NAME    = OAO 3 (COPERNICUS)
OBJECT_ID      = 1972-065A
CENTER_NAME    = EARTH
REF_FRAME      = TEME
TIME_SYSTEM    = UTC
MEAN_ELEMENT_THEORY = SGP/SGP4

EPOCH          = 2026-02-11T11:47:14.535744
MEAN_MOTION    = 14.59974541
ECCENTRICITY   = .00071232
INCLINATION    = 35.0056
RA_OF_ASC_NODE = 86.5741
ARG_OF_PERICENTER = 303.8246
MEAN_ANOMALY   = 200.5937

EPHEMERIS_TYPE = 0
CLASSIFICATION_TYPE = U
NORAD_CAT_ID   = 6153
ELEMENT_SET_NO = 999
REV_AT_EPOCH   = 84236
BSTAR          = .91836583E-4
MEAN_MOTION_DOT = .426E-5
MEAN_MOTION_DDOT = 0

