ATLAS CENTAUR 2         
1 00694U 63047A   26042.17551664  .00001390  00000+0  15538-3 0  9995
2 00694  30.3574 343.8083 0548130 206.6568 150.4836 14.11993366127871
THOR AGENA D R/B        
1 00733U 64002A   26042.91522467  .00000288  00000+0  12017-3 0  9996
2 00733  99.1230  54.8488 0032508 335.2078  24.7541 14.34004204234602
SL-3 R/B                
1 00877U 64053B   26042.41293859  .00000422  00000+0  10596-3 0  9996
2 00877  65.0765  48.2717 0078479 300.5596  58.7776 14.61340198262956
SL-8 R/B                
1 02802U 67045B   26041.44754027  .00000363  00000+0  10794-3 0  9995
2 02802  74.0103  38.9626 0063135  52.0645 308.6195 14.45595013 85083
SL-8 R/B                
1 03230U 68040B   26042.95280969  .00003954  00000+0  29438-3 0  9997
2 03230  74.0320   6.2704 0025174 197.6407 162.3910 15.03060383 86148
OAO 2                   
1 03597U 68110A   26042.08472510  .00000291  00000+0  83490-4 0  9990
2 03597  34.9940  53.7608 0005681 338.7422  21.3032 14.47291406 15244
ISIS 1                  
1 03669U 69009A   26042.69725727  .00000311  00000+0  20792-3 0  9994
2 03669  88.4555 158.1406 1707851 141.6055 231.9927 11.30404232345596
SERT 2                  
1 04327U 70009A   26042.77894222  .00000024  00000+0  89565-4 0  9999
2 04327  99.2723 347.2952 0004094 225.0298 198.7291 13.58727361776377
SL-3 R/B                
1 05118U 71028B   26042.74219723  .00036437  00000+0  46293-3 0  9991
2 05118  81.2344  84.0306 0017189  26.1238 334.0877 15.59040819984621
ASTEX 1                 
1 05560U 71089A   26042.74997378  .00000618  00000+0  15730-3 0  9992
2 05560  92.7150 143.3677 0016178 164.3722 195.7987 14.50739434858547
SL-8 R/B                
1 05730U 71119B   26042.90585105  .00013428  00000+0  69625-3 0  9999
2 05730  73.8849 223.8845 0553403 195.8135 162.5126 14.37050670651783
OAO 3 (COPERNICUS)      
1 06153U 72065A   26042.49114046  .00000426  00000+0  91837-4 0  9991
2 06153  35.0056  86.5741 0007123 303.8246 200.5937 14.59974541842364
